ONEWEB-0435             
1 51632U 22012L   24289.40461578  .00000617  00000+0  17316-2 0  9997
2 51632  87.8944 157.6691 0001993  86.2243 273.9112 13.10372547129450
ONEWEB-0436             
1 51633U 22012M   24289.52070330  .00000070  00000+0  14715-3 0  9997
2 51633  87.9081 127.3028 0001883  84.6536 275.4811 13.17649647133393
ONEWEB-0438             
1 51634U 22012N   24289.38800158  .00000434  00000+0  12081-2 0  9998
2 51634  87.8944 157.6731 0001430  78.0738 282.0549 13.10378206129487
ONEWEB-0439             
1 51635U 22012P   24289.62040703  .00001694  00000+0  48158-2 0  9991
2 51635  87.8947 157.6130 0001585  81.8198 278.3109 13.10370346129495
ONEWEB-0442             
1 51636U 22012Q   24289.51311800  .00000029  00000+0  40747-4 0  9998
2 51636  87.9085 127.3435 0001009  69.4411 290.6829 13.17649768133386
ONEWEB-0443             
1 51637U 22012R   24289.53252470  .00000052  00000+0  10086-3 0  9996
2 51637  87.9085 127.3499 0001452  97.5962 262.5334 13.17644607133434
ONEWEB-0444             
1 51638U 22012S   24289.38136489  .00000004  00000+0 -23411-4 0  9996
2 51638  87.8944 157.6759 0001775  82.1921 277.9408 13.10374881129474
ONEWEB-0445             
1 51639U 22012T   24289.40297616  .00000651  00000+0  18294-2 0  9998
2 51639  87.8935 157.6377 0001496  70.7593 289.3696 13.10372784129486
